[Satellite]
VERSION=1.1
NAME=NODES 2
NICKNAME=NODES 2
TLE1=1 41477U 98067HX  17186.25005966  .00055986  00000-0  23795-3 0  9991
TLE2=2 41477  51.6267 269.1382 0001997 333.2769  26.8131 15.84713514 64934
